[{"OBJECT_NAME":"STARLINK-5250","OBJECT_ID":"2022-141AV","EPOCH":"2026-03-09T04:13:26.246208","MEAN_MOTION":15.08837396,"ECCENTRICITY":0.00013598,"INCLINATION":53.2188,"RA_OF_ASC_NODE":356.1898,"ARG_OF_PERICENTER":85.347,"MEAN_ANOMALY":274.7677,"EPHEMERIS_TYPE":0,"CLASSIFICATION_TYPE":"U","NORAD_CAT_ID":54200,"ELEMENT_SET_NO":999,"REV_AT_EPOCH":18592,"BSTAR":3.2268615e-5,"MEAN_MOTION_DOT":2.26e-6,"MEAN_MOTION_DDOT":0},{"OBJECT_NAME":"ONEWEB-0618","OBJECT_ID":"2023-004V","EPOCH":"2026-03-09T21:27:12.326688","MEAN_MOTION":15.11974897,"ECCENTRICITY":0.00107842,"INCLINATION":86.9069,"RA_OF_ASC_NODE":217.8931,"ARG_OF_PERICENTER":307.7231,"MEAN_ANOMALY":52.303,"EPHEMERIS_TYPE":0,"CLASSIFICATION_TYPE":"U","NORAD_CAT_ID":55159,"ELEMENT_SET_NO":999,"REV_AT_EPOCH":16725,"BSTAR":0.00049587895,"MEAN_MOTION_DOT":8.547e-5,"MEAN_MOTION_DDOT":0}]
